ONEWEB-0130             
1 47276U 20100U   26170.93440829  .00000170  00000+0  43700-3 0  9998
2 47276  87.8949 350.1057 0001790  95.0903 265.0430 13.12444654265004
ONEWEB-0131             
1 47277U 20100V   26170.93103025  .00000066  00000+0  14729-3 0  9996
2 47277  87.8937 350.1244 0001611  92.2856 267.8457 13.12445537265042
ONEWEB-0132             
1 47278U 20100W   26170.95981923  .00000284  00000+0  75425-3 0  9992
2 47278  87.8938 350.1205 0001722  91.2661 268.8665 13.12443464264944
ONEWEB-0133             
1 47279U 20100X   26171.20532585 -.00000187  00000+0 -55509-3 0  9993
2 47279  87.8951 350.0479 0001637  91.1573 268.9743 13.12441163265132
ONEWEB-0134             
1 47280U 20100Y   26170.94625591 -.00000389  00000+0 -11169-2 0  9992
2 47280  87.8952 350.0966 0001693  99.7728 260.3592 13.12448864265070
ONEWEB-0135             
1 47281U 20100Z   26170.91745226 -.00000481  00000+0 -13725-2 0  9991
2 47281  87.8942 350.1247 0001601  98.1815 261.9495 13.12443482265094
ONEWEB-0136             
1 47282U 20100AA  26170.93609375  .00000234  00000+0  61383-3 0  9996
2 47282  87.8947 350.1027 0001659 101.5287 258.6028 13.12445359265024
ONEWEB-0137             
1 47283U 20100AB  26171.19869191 -.00001004  00000+0 -28270-2 0  9995
2 47283  87.8938 350.0620 0002131  87.3394 272.7979 13.12446369264965
ONEWEB-0138             
1 47284U 20100AC  26170.94796317  .00000401  00000+0  10796-2 0  9999
2 47284  87.8948 350.1160 0001756  98.8068 261.3259 13.12444065265017
ONEWEB-0139             
1 47285U 20100AD  26170.91250972 -.00000398  00000+0 -11409-2 0  9998
2 47285  87.8948 350.1093 0001828  93.1340 266.9998 13.12441827265085
ONEWEB-0140             
1 47286U 20100AE  26170.94287635  .00000412  00000+0  11105-2 0  9996
2 47286  87.8946 350.0945 0001624  87.6747 272.4568 13.12444704265051
ONEWEB-0141             
1 47287U 20100AF  26170.91223322 -.00000408  00000+0 -11698-2 0  9991
2 47287  87.8951 350.1050 0002115  89.0215 271.1156 13.12441789265035
ONEWEB-0142             
1 47288U 20100AG  26171.20562404 -.00000254  00000+0 -74223-3 0  9995
2 47288  87.8940 350.0682 0002171  96.8934 263.2441 13.12441824265062
ONEWEB-0143             
1 47289U 20100AH  26171.21562739 -.00000406  00000+0 -11638-2 0  9997
2 47289  87.8946 350.0649 0001826  90.5610 269.5728 13.12441545265045
ONEWEB-0144             
1 47290U 20100AJ  26170.95813365  .00000313  00000+0  83591-3 0  9996
2 47290  87.8952 350.0904 0001910 102.8212 257.3130 13.12443724264937
ONEWEB-0145             
1 47291U 20100AK  26170.92931657  .00000054  00000+0  11357-3 0  9992
2 47291  87.8941 350.1236 0001870  94.2003 265.9339 13.12445960265124
ONEWEB-0146             
1 47292U 20100AL  26170.92593117 -.00000101  00000+0 -31612-3 0  9999
2 47292  87.8951 350.1163 0001643  81.7042 278.4273 13.12445117265037
ONEWEB-0147             
1 47293U 20100AM  26171.19699884  .00000085  00000+0  20023-3 0  9991
2 47293  87.8948 350.0441 0001669  93.8338 266.2982 13.12441018264961
ONEWEB-0115             
1 48042U 21025A   26170.91811266 -.00000037  00000+0 -13723-3 0  9998
2 48042  87.8963 319.6791 0001778  96.6478 263.4854 13.13470719253952
ONEWEB-0152             
1 48043U 21025B   26171.16018626  .00000245  00000+0  63647-3 0  9995
2 48043  87.8965 319.6279 0001720  95.1776 264.9550 13.13470611253947
ONEWEB-0153             
1 48044U 21025C   26171.13817154 -.00000313  00000+0 -89116-3 0  9993
2 48044  87.8957 319.6353 0001922  99.1269 261.0077 13.13470347253934
ONEWEB-0154             
1 48045U 21025D   26171.13477401 -.00001843  00000+0 -50829-2 0  9998
2 48045  87.8960 319.6331 0001755  98.9376 261.1952 13.13474836253890
ONEWEB-0116             
1 48046U 21025E   26171.17372744  .00000262  00000+0  68239-3 0  9994
2 48046  87.8970 319.6221 0001704  97.9613 262.1710 13.13467644254047
ONEWEB-0150             
1 48047U 21025F   26171.15002907 -.00000089  00000+0 -27785-3 0  9994
2 48047  87.8962 319.6247 0002045  94.1084 266.0279 13.13470177253932
ONEWEB-0107             
1 48048U 21025G   26171.15172199  .00000013  00000+0  10985-6 0  9998
2 48048  87.8964 319.6203 0002044 102.3772 257.7586 13.13470429253918
ONEWEB-0101             
1 48049U 21025H   26170.96211706 -.00000077  00000+0 -24614-3 0  9998
2 48049  87.8955 319.6733 0001823 102.2657 257.8677 13.13469994253863
ONEWEB-0113             
1 48050U 21025J   26171.13788386 -.00000262  00000+0 -74767-3 0  9993
2 48050  87.8961 319.5485 0001866  94.1385 265.9958 13.13893320253999
ONEWEB-0112             
1 48051U 21025K   26171.30915510  .00000192  00000+0  49188-3 0  9993
2 48051  87.8964 319.5869 0001828 105.1365 254.9966 13.13470020254006
ONEWEB-0156             
1 48052U 21025L   26171.16526218  .00000387  00000+0  10240-2 0  9993
2 48052  87.8965 319.6255 0001984  98.3504 261.7850 13.13470534253961
ONEWEB-0161             
1 48053U 21025M   26171.13986306 -.00000309  00000+0 -87997-3 0  9999
2 48053  87.8963 319.6319 0002014  99.7471 260.3885 13.13470695253897
