OBJECT_NAME,OBJECT_ID,EPOCH,MEAN_MOTION,ECCENTRICITY,INCLINATION,RA_OF_ASC_NODE,ARG_OF_PERICENTER,MEAN_ANOMALY,EPHEMERIS_TYPE,CLASSIFICATION_TYPE,NORAD_CAT_ID,ELEMENT_SET_NO,REV_AT_EPOCH,BSTAR,MEAN_MOTION_DOT,MEAN_MOTION_DDOT
ONEWEB-0130,2020-100U,2026-06-19T22:25:32.876256,13.12444654,.00017907,87.8949,350.1057,95.0903,265.0430,0,U,47276,999,26500,.43699774E-3,.17E-5,0
ONEWEB-0131,2020-100V,2026-06-19T22:20:41.013600,13.12445537,.00016112,87.8937,350.1244,92.2856,267.8457,0,U,47277,999,26504,.14728646E-3,.66E-6,0
ONEWEB-0132,2020-100W,2026-06-19T23:02:08.381472,13.12443464,.00017228,87.8938,350.1205,91.2661,268.8665,0,U,47278,999,26494,.75424838E-3,.284E-5,0
ONEWEB-0133,2020-100X,2026-06-20T04:55:40.153440,13.12441163,.0001637,87.8951,350.0479,91.1573,268.9743,0,U,47279,999,26513,-.55508568E-3,-.187E-5,0
ONEWEB-0134,2020-100Y,2026-06-19T22:42:36.510624,13.12448864,.00016932,87.8952,350.0966,99.7728,260.3592,0,U,47280,999,26507,-.1116866E-2,-.389E-5,0
ONEWEB-0135,2020-100Z,2026-06-19T22:01:07.875264,13.12443482,.00016012,87.8942,350.1247,98.1815,261.9495,0,U,47281,999,26509,-.13725325E-2,-.481E-5,0
ONEWEB-0136,2020-100AA,2026-06-19T22:27:58.500000,13.12445359,.00016599,87.8947,350.1027,101.5287,258.6028,0,U,47282,999,26502,.61383482E-3,.234E-5,0
ONEWEB-0137,2020-100AB,2026-06-20T04:46:06.981024,13.12446369,.00021319,87.8938,350.0620,87.3394,272.7979,0,U,47283,999,26496,-.28269999E-2,-.1004E-4,0
ONEWEB-0138,2020-100AC,2026-06-19T22:45:04.017888,13.12444065,.00017567,87.8948,350.1160,98.8068,261.3259,0,U,47284,999,26501,.10796219E-2,.401E-5,0
ONEWEB-0139,2020-100AD,2026-06-19T21:54:00.839808,13.12441827,.00018287,87.8948,350.1093,93.1340,266.9998,0,U,47285,999,26508,-.11409388E-2,-.398E-5,0
ONEWEB-0140,2020-100AE,2026-06-19T22:37:44.516640,13.12444704,.00016243,87.8946,350.0945,87.6747,272.4568,0,U,47286,999,26505,.1110516E-2,.412E-5,0
ONEWEB-0141,2020-100AF,2026-06-19T21:53:36.950208,13.12441789,.00021157,87.8951,350.1050,89.0215,271.1156,0,U,47287,999,26503,-.11698306E-2,-.408E-5,0
ONEWEB-0142,2020-100AG,2026-06-20T04:56:05.917056,13.12441824,.00021711,87.8940,350.0682,96.8934,263.2441,0,U,47288,999,26506,-.7422302E-3,-.254E-5,0
ONEWEB-0143,2020-100AH,2026-06-20T05:10:30.206496,13.12441545,.00018269,87.8946,350.0649,90.5610,269.5728,0,U,47289,999,26504,-.11638054E-2,-.406E-5,0
ONEWEB-0144,2020-100AJ,2026-06-19T22:59:42.747360,13.12443724,.00019106,87.8952,350.0904,102.8212,257.3130,0,U,47290,999,26493,.83591181E-3,.313E-5,0
ONEWEB-0145,2020-100AK,2026-06-19T22:18:12.951648,13.12445960,.00018701,87.8941,350.1236,94.2003,265.9339,0,U,47291,999,26512,.1135705E-3,.54E-6,0
ONEWEB-0146,2020-100AL,2026-06-19T22:13:20.453088,13.12445117,.00016431,87.8951,350.1163,81.7042,278.4273,0,U,47292,999,26503,-.31611997E-3,-.101E-5,0
ONEWEB-0147,2020-100AM,2026-06-20T04:43:40.699776,13.12441018,.00016694,87.8948,350.0441,93.8338,266.2982,0,U,47293,999,26496,.20023233E-3,.85E-6,0
ONEWEB-0115,2021-025A,2026-06-19T22:02:04.933824,13.13470719,.00017789,87.8963,319.6791,96.6478,263.4854,0,U,48042,999,25395,-.13722557E-3,-.37E-6,0
ONEWEB-0152,2021-025B,2026-06-20T03:50:40.092864,13.13470611,.00017208,87.8965,319.6279,95.1776,264.9550,0,U,48043,999,25394,.63646985E-3,.245E-5,0
ONEWEB-0153,2021-025C,2026-06-20T03:18:58.021056,13.13470347,.00019225,87.8957,319.6353,99.1269,261.0077,0,U,48044,999,25393,-.89116428E-3,-.313E-5,0
ONEWEB-0154,2021-025D,2026-06-20T03:14:04.474464,13.13474836,.00017554,87.8960,319.6331,98.9376,261.1952,0,U,48045,999,25389,-.50828639E-2,-.1843E-4,0
ONEWEB-0116,2021-025E,2026-06-20T04:10:10.050816,13.13467644,.0001704,87.8970,319.6221,97.9613,262.1710,0,U,48046,999,25404,.68238944E-3,.262E-5,0
ONEWEB-0150,2021-025F,2026-06-20T03:36:02.511648,13.13470177,.00020451,87.8962,319.6247,94.1084,266.0279,0,U,48047,999,25393,-.2778534E-3,-.89E-6,0
ONEWEB-0107,2021-025G,2026-06-20T03:38:28.779936,13.13470429,.00020443,87.8964,319.6203,102.3772,257.7586,0,U,48048,999,25391,.109848E-6,.13E-6,0
ONEWEB-0101,2021-025H,2026-06-19T23:05:26.913984,13.13469994,.00018237,87.8955,319.6733,102.2657,257.8677,0,U,48049,999,25386,-.24613739E-3,-.77E-6,0
ONEWEB-0113,2021-025J,2026-06-20T03:18:33.165504,13.13893320,.00018662,87.8961,319.5485,94.1385,265.9958,0,U,48050,999,25399,-.74767063E-3,-.262E-5,0
ONEWEB-0112,2021-025K,2026-06-20T07:25:11.000640,13.13470020,.00018289,87.8964,319.5869,105.1365,254.9966,0,U,48051,999,25400,.49187551E-3,.192E-5,0
ONEWEB-0156,2021-025L,2026-06-20T03:57:58.652352,13.13470534,.00019841,87.8965,319.6255,98.3504,261.7850,0,U,48052,999,25396,.1023982E-2,.387E-5,0
ONEWEB-0161,2021-025M,2026-06-20T03:21:24.168384,13.13470695,.00020148,87.8963,319.6319,99.7471,260.3885,0,U,48053,999,25389,-.87997252E-3,-.309E-5,0
